[{"OBJECT_NAME":"STARLINK-31704","OBJECT_ID":"2024-076Y","EPOCH":"2026-03-09T22:00:01.999584","MEAN_MOTION":15.30892355,"ECCENTRICITY":0.00079744,"INCLINATION":42.9978,"RA_OF_ASC_NODE":323.2923,"ARG_OF_PERICENTER":240.5046,"MEAN_ANOMALY":200.4144,"EPHEMERIS_TYPE":0,"CLASSIFICATION_TYPE":"U","NORAD_CAT_ID":59586,"ELEMENT_SET_NO":999,"REV_AT_EPOCH":581,"BSTAR":0.0024766131,"MEAN_MOTION_DOT":0.00076042,"MEAN_MOTION_DDOT":0},{"OBJECT_NAME":"STARLINK-32835","OBJECT_ID":"2025-034Y","EPOCH":"2026-03-09T22:53:18.140352","MEAN_MOTION":15.30198308,"ECCENTRICITY":0.00011662,"INCLINATION":53.1595,"RA_OF_ASC_NODE":269.9389,"ARG_OF_PERICENTER":88.4751,"MEAN_ANOMALY":271.6383,"EPHEMERIS_TYPE":0,"CLASSIFICATION_TYPE":"U","NORAD_CAT_ID":63051,"ELEMENT_SET_NO":999,"REV_AT_EPOCH":5894,"BSTAR":0.001375326,"MEAN_MOTION_DOT":0.00040595,"MEAN_MOTION_DDOT":0}]
